[{"OBJECT_NAME":"STARLINK-5589","OBJECT_ID":"2023-099G","EPOCH":"2026-03-09T13:11:38.222880","MEAN_MOTION":15.02535677,"ECCENTRICITY":0.00010654,"INCLINATION":43.0027,"RA_OF_ASC_NODE":249.8912,"ARG_OF_PERICENTER":280.1338,"MEAN_ANOMALY":79.9384,"EPHEMERIS_TYPE":0,"CLASSIFICATION_TYPE":"U","NORAD_CAT_ID":57334,"ELEMENT_SET_NO":999,"REV_AT_EPOCH":14609,"BSTAR":9.777834e-5,"MEAN_MOTION_DOT":1.117e-5,"MEAN_MOTION_DDOT":0},{"OBJECT_NAME":"LEMUR-2-ALISIA","OBJECT_ID":"2025-009DB","EPOCH":"2026-03-09T17:42:17.671392","MEAN_MOTION":15.01147598,"ECCENTRICITY":0.00065821,"INCLINATION":97.7037,"RA_OF_ASC_NODE":151.6973,"ARG_OF_PERICENTER":159.9869,"MEAN_ANOMALY":200.1615,"EPHEMERIS_TYPE":0,"CLASSIFICATION_TYPE":"U","NORAD_CAT_ID":62706,"ELEMENT_SET_NO":999,"REV_AT_EPOCH":8523,"BSTAR":0.00072005311,"MEAN_MOTION_DOT":9.177e-5,"MEAN_MOTION_DDOT":0}]
