STARLINK-5589           
1 57334U 23099G   26068.54974795  .00001117  00000+0  97778-4 0  9998
2 57334  43.0027 249.8912 0001065 280.1338  79.9384 15.02535677146093
LEMUR-2-ALISIA          
1 62706U 25009DB  26068.73770453  .00009177  00000+0  72005-3 0  9995
2 62706  97.7037 151.6973 0006582 159.9869 200.1615 15.01147598 85230
